[
    {
        "Altitude(m)": 555737.258392981,
        "Argument of Periapsis(deg)": 0.033114955553567506,
        "Eccentricity": 0.0,
        "Inclination(deg)": 53.0,
        "Latitude(deg)": -8.489266241957038,
        "Longitude(deg)": -92.56530453059581,
        "Mean Anomaly(deg)": -169.54193566211202,
        "RAAN(deg)": 184.95071684264005,
        "Satellite Name": "Starlink Shell 1 822",
        "Satellite Number": 822,
        "Semi-Major Axis(m)": 6931778.249405717,
        "Time(s)": 950
    },
    {
        "Altitude(m)": 555848.865269161,
        "Argument of Periapsis(deg)": 0.03346353403307874,
        "Eccentricity": 0.0,
        "Inclination(deg)": 53.0,
        "Latitude(deg)": -8.989538105874322,
        "Longitude(deg)": -92.22124973657242,
        "Mean Anomaly(deg)": -168.91510445855533,
        "RAAN(deg)": 184.9501980725626,
        "Satellite Name": "Starlink Shell 1 822",
        "Satellite Number": 822,
        "Semi-Major Axis(m)": 6931778.249405717,
        "Time(s)": 960
    },
    {
        "Altitude(m)": 555962.9126935481,
        "Argument of Periapsis(deg)": 0.03381211251258998,
        "Eccentricity": 0.0,
        "Inclination(deg)": 53.0,
        "Latitude(deg)": -9.489380292030264,
        "Longitude(deg)": -91.8761470346188,
        "Mean Anomaly(deg)": -168.28827325499867,
        "RAAN(deg)": 184.94967930248512,
        "Satellite Name": "Starlink Shell 1 822",
        "Satellite Number": 822,
        "Semi-Major Axis(m)": 6931778.249405717,
        "Time(s)": 970
    },
    {
        "Altitude(m)": 556079.3686633221,
        "Argument of Periapsis(deg)": 0.034160690992101214,
        "Eccentricity": 0.0,
        "Inclination(deg)": 53.0,
        "Latitude(deg)": -9.988767953065002,
        "Longitude(deg)": -91.52993471438349,
        "Mean Anomaly(deg)": -167.66144205144192,
        "RAAN(deg)": 184.94916053240766,
        "Satellite Name": "Starlink Shell 1 822",
        "Satellite Number": 822,
        "Semi-Major Axis(m)": 6931778.249405717,
        "Time(s)": 980
    },
    {
        "Altitude(m)": 556198.1999623096,
        "Argument of Periapsis(deg)": 0.034509269471612446,
        "Eccentricity": 0.0,
        "Inclination(deg)": 53.0,
        "Latitude(deg)": -10.487676012599481,
        "Longitude(deg)": -91.18255008384507,
        "Mean Anomaly(deg)": -167.03461084788518,
        "RAAN(deg)": 184.9486417623302,
        "Satellite Name": "Starlink Shell 1 822",
        "Satellite Number": 822,
        "Semi-Major Axis(m)": 6931778.249405717,
        "Time(s)": 990
    }
]